[{"OBJECT_NAME":"OBJECT Y","OBJECT_ID":"2023-085Y","EPOCH":"2026-03-09T22:38:54.992256","MEAN_MOTION":15.32500153,"ECCENTRICITY":0.00063298,"INCLINATION":97.4849,"RA_OF_ASC_NODE":180.8653,"ARG_OF_PERICENTER":67.4431,"MEAN_ANOMALY":292.748,"EPHEMERIS_TYPE":0,"CLASSIFICATION_TYPE":"U","NORAD_CAT_ID":57026,"ELEMENT_SET_NO":999,"REV_AT_EPOCH":15160,"BSTAR":0.00065512761,"MEAN_MOTION_DOT":0.00020524,"MEAN_MOTION_DDOT":0},{"OBJECT_NAME":"STARLINK-35971","OBJECT_ID":"2025-283T","EPOCH":"2026-03-09T06:04:55.006752","MEAN_MOTION":15.30194115,"ECCENTRICITY":0.00011803,"INCLINATION":53.1604,"RA_OF_ASC_NODE":26.4589,"ARG_OF_PERICENTER":122.6449,"MEAN_ANOMALY":237.4666,"EPHEMERIS_TYPE":0,"CLASSIFICATION_TYPE":"U","NORAD_CAT_ID":66895,"ELEMENT_SET_NO":999,"REV_AT_EPOCH":1577,"BSTAR":0.00038082893,"MEAN_MOTION_DOT":0.00010934,"MEAN_MOTION_DDOT":0}]
